start=new Date('2023-05-14T00:00:00.000Z').valueOf();
sats=[{"MEAN_ELEMENT_THEORY":"SGP4","APOAPSIS":"540.578","INCLINATION":"53.2152","GP_ID":"231781777","EPHEMERIS_TYPE":"0","PERIAPSIS":"538.915","ARG_OF_PERICENTER":"92.3685","TIME_SYSTEM":"UTC","NORAD_CAT_ID":"53974","OBJECT_NAME":"STARLINK-5159","TLE_LINE1":"1 53974U 22125L   23133.76290345  .00001071  00000-0  85352-4 0  9994","ECCENTRICITY":"0.00012020","FILE":"3907148","RCS_SIZE":"LARGE","PERIOD":"95.438","CENTER_NAME":"EARTH","RA_OF_ASC_NODE":"151.7340","SITE":"AFWTR","MEAN_MOTION_DDOT":"0.0000000000000","MEAN_ANOMALY":"267.7444","REF_FRAME":"TEME","ELEMENT_SET_NO":"999","LAUNCH_DATE":"2022-10-05","REV_AT_EPOCH":"3397","SEMIMAJOR_AXIS":"6917.882","MEAN_MOTION_DOT":"0.00001071","TLE_LINE2":"2 53974  53.2152 151.7340 0001202  92.3685 267.7444 15.08839620 33975","CLASSIFICATION_TYPE":"U","EPOCH":"2023-05-13T18:18:34.858080","MEAN_MOTION":"15.08839620","DECAY_DATE":null,"COUNTRY_CODE":"US","BSTAR":"0.00008535200000","OBJECT_TYPE":"PAYLOAD","OBJECT_ID":"2022-125L"},{"OBJECT_NAME":"STARLINK-5137","TLE_LINE1":"1 53975U 22125M   23133.82959653  .00001477  00000-0  11084-3 0  9996","TIME_SYSTEM":"UTC","NORAD_CAT_ID":"53975","RA_OF_ASC_NODE":"166.4059","SITE":"AFWTR","MEAN_MOTION_DDOT":"0.0000000000000","REF_FRAME":"TEME","MEAN_ANOMALY":"275.0534","ECCENTRICITY":"0.00014900","FILE":"3907148","RCS_SIZE":"LARGE","PERIOD":"95.437","CENTER_NAME":"EARTH","APOAPSIS":"540.773","GP_ID":"231779538","INCLINATION":"53.2155","MEAN_ELEMENT_THEORY":"SGP4","ARG_OF_PERICENTER":"85.0628","EPHEMERIS_TYPE":"0","PERIAPSIS":"538.711","DECAY_DATE":null,"EPOCH":"2023-05-13T19:54:37.140192","MEAN_MOTION":"15.08841114","BSTAR":"0.00011084000000","OBJECT_TYPE":"PAYLOAD","OBJECT_ID":"2022-125M","COUNTRY_CODE":"US","SEMIMAJOR_AXIS":"6917.877","MEAN_MOTION_DOT":"0.00001477","REV_AT_EPOCH":"3377","LAUNCH_DATE":"2022-10-05","ELEMENT_SET_NO":"999","TLE_LINE2":"2 53975  53.2155 166.4059 0001490  85.0628 275.0534 15.08841114 33775","CLASSIFICATION_TYPE":"U"},{"CENTER_NAME":"EARTH","PERIOD":"95.437","ECCENTRICITY":"0.00013060","FILE":"3907148","RCS_SIZE":"LARGE","REF_FRAME":"TEME","MEAN_ANOMALY":"280.3202","MEAN_MOTION_DDOT":"0.0000000000000","SITE":"AFWTR","RA_OF_ASC_NODE":"151.8426","NORAD_CAT_ID":"53976","TIME_SYSTEM":"UTC","TLE_LINE1":"1 53976U 22125N   23133.77860094  .00001114  00000-0  88094-4 0  9995","OBJECT_NAME":"STARLINK-5134","PERIAPSIS":"538.838","EPHEMERIS_TYPE":"0","ARG_OF_PERICENTER":"79.7937","MEAN_ELEMENT_THEORY":"SGP4","APOAPSIS":"540.645","GP_ID":"231780281","INCLINATION":"53.2146","COUNTRY_CODE":"US","OBJECT_ID":"2022-125N","OBJECT_TYPE":"PAYLOAD","BSTAR":"0.00008809400000","MEAN_MOTION":"15.08841179","EPOCH":"2023-05-13T18:41:11.121216","DECAY_DATE":null,"TLE_LINE2":"2 53976  53.2146 151.8426 0001306  79.7937 280.3202 15.08841179 33975","CLASSIFICATION_TYPE":"U","LAUNCH_DATE":"2022-10-05","ELEMENT_SET_NO":"999","REV_AT_EPOCH":"3397","MEAN_MOTION_DOT":"0.00001114","SEMIMAJOR_AXIS":"6917.877"},{"OBJECT_ID":"2022-125P","OBJECT_TYPE":"PAYLOAD","BSTAR":"0.00009964700000","COUNTRY_CODE":"US","DECAY_DATE":null,"MEAN_MOTION":"15.08841250","EPOCH":"2023-05-13T19:33:31.050144","TLE_LINE2":"2 53977  53.2162 167.0049 0001114  91.0448 269.0672 15.08841250 33767","CLASSIFICATION_TYPE":"U","MEAN_MOTION_DOT":"0.00001298","SEMIMAJOR_AXIS":"6917.877","LAUNCH_DATE":"2022-10-05","ELEMENT_SET_NO":"999","REV_AT_EPOCH":"3376","MEAN_ANOMALY":"269.0672","REF_FRAME":"TEME","MEAN_MOTION_DDOT":"0.0000000000000","SITE":"AFWTR","RA_OF_ASC_NODE":"167.0049","CENTER_NAME":"EARTH","PERIOD":"95.437","ECCENTRICITY":"0.00011140","RCS_SIZE":"LARGE","FILE":"3907148","TLE_LINE1":"1 53977U 22125P   23133.81494271  .00001298  00000-0  99647-4 0  9990","OBJECT_NAME":"STARLINK-5094","NORAD_CAT_ID":"53977","TIME_SYSTEM":"UTC","ARG_OF_PERICENTER":"91.0448","PERIAPSIS":"538.971","EPHEMERIS_TYPE":"0","APOAPSIS":"540.512","INCLINATION":"53.2162","GP_ID":"231782794","MEAN_ELEMENT_THEORY":"SGP4"},{"TIME_SYSTEM":"UTC","NORAD_CAT_ID":"53978","OBJECT_NAME":"STARLINK-5148","TLE_LINE1":"1 53978U 22125Q   23133.79379602  .00001395  00000-0  10575-3 0  9998","FILE":"3906968","RCS_SIZE":"LARGE","ECCENTRICITY":"0.00011680","PERIOD":"95.438","CENTER_NAME":"EARTH","SITE":"AFWTR","RA_OF_ASC_NODE":"166.8797","MEAN_MOTION_DDOT":"0.0000000000000","MEAN_ANOMALY":"261.1596","REF_FRAME":"TEME","MEAN_ELEMENT_THEORY":"SGP4","GP_ID":"231752370","INCLINATION":"53.2157","APOAPSIS":"540.575","EPHEMERIS_TYPE":"0","PERIAPSIS":"538.959","ARG_OF_PERICENTER":"98.9529","EPOCH":"2023-05-13T19:03:03.976128","MEAN_MOTION":"15.08832929","DECAY_DATE":null,"COUNTRY_CODE":"US","OBJECT_TYPE":"PAYLOAD","BSTAR":"0.00010575000000","OBJECT_ID":"2022-125Q","LAUNCH_DATE":"2022-10-05","ELEMENT_SET_NO":"999","REV_AT_EPOCH":"3383","SEMIMAJOR_AXIS":"6917.902","MEAN_MOTION_DOT":"0.00001395","CLASSIFICATION_TYPE":"U","TLE_LINE2":"2 53978  53.2157 166.8797 0001168  98.9529 261.1596 15.08832929 33833"},{"ARG_OF_PERICENTER":"93.5597","EPHEMERIS_TYPE":"0","PERIAPSIS":"539.056","GP_ID":"231752157","INCLINATION":"53.2159","APOAPSIS":"540.451","MEAN_ELEMENT_THEORY":"SGP4","SITE":"AFWTR","MEAN_MOTION_DDOT":"0.0000000000000","RA_OF_ASC_NODE":"166.9432","MEAN_ANOMALY":"266.5510","REF_FRAME":"TEME","FILE":"3906959","RCS_SIZE":"LARGE","ECCENTRICITY":"0.00010080","CENTER_NAME":"EARTH","PERIOD":"95.438","OBJECT_NAME":"STARLINK-5123","TLE_LINE1":"1 53979U 22125R   23133.80389214  .00000503  00000-0  49681-4 0  9992","TIME_SYSTEM":"UTC","NORAD_CAT_ID":"53979","CLASSIFICATION_TYPE":"U","TLE_LINE2":"2 53979  53.2159 166.9432 0001008  93.5597 266.5510 15.08837373 33835","SEMIMAJOR_AXIS":"6917.888","MEAN_MOTION_DOT":"0.00000503","LAUNCH_DATE":"2022-10-05","ELEMENT_SET_NO":"999","REV_AT_EPOCH":"3383","BSTAR":"0.00004968100000","OBJECT_TYPE":"PAYLOAD","OBJECT_ID":"2022-125R","COUNTRY_CODE":"US","DECAY_DATE":null,"EPOCH":"2023-05-13T19:17:36.280896","MEAN_MOTION":"15.08837373"},{"NORAD_CAT_ID":"53980","TIME_SYSTEM":"UTC","TLE_LINE1":"1 53980U 22125S   23133.57937081  .00000850  00000-0  71460-4 0  9994","OBJECT_NAME":"STARLINK-5133","PERIOD":"95.437","CENTER_NAME":"EARTH","ECCENTRICITY":"0.00013820","RCS_SIZE":"LARGE","FILE":"3907148","REF_FRAME":"TEME","MEAN_ANOMALY":"247.8409","RA_OF_ASC_NODE":"167.6719","SITE":"AFWTR","MEAN_MOTION_DDOT":"0.0000000000000","MEAN_ELEMENT_THEORY":"SGP4","APOAPSIS":"540.695","GP_ID":"231780782","INCLINATION":"53.2161","PERIAPSIS":"538.783","EPHEMERIS_TYPE":"0","ARG_OF_PERICENTER":"112.2730","MEAN_MOTION":"15.08842121","EPOCH":"2023-05-13T13:54:17.637984","DECAY_DATE":null,"COUNTRY_CODE":"US","OBJECT_ID":"2022-125S","OBJECT_TYPE":"PAYLOAD","BSTAR":"0.00007146000000","ELEMENT_SET_NO":"999","LAUNCH_DATE":"2022-10-05","REV_AT_EPOCH":"3373","MEAN_MOTION_DOT":"0.00000850","SEMIMAJOR_AXIS":"6917.874","TLE_LINE2":"2 53980  53.2161 167.6719 0001382 112.2730 247.8409 15.08842121 33734","CLASSIFICATION_TYPE":"U"},{"DECAY_DATE":null,"EPOCH":"2023-05-13T18:39:48.697344","MEAN_MOTION":"15.08840053","BSTAR":"0.00013163000000","OBJECT_TYPE":"PAYLOAD","OBJECT_ID":"2022-125T","COUNTRY_CODE":"US","SEMIMAJOR_AXIS":"6917.880","MEAN_MOTION_DOT":"0.00001808","LAUNCH_DATE":"2022-10-05","ELEMENT_SET_NO":"999","REV_AT_EPOCH":"3397","TLE_LINE2":"2 53981  53.2155 151.8393 0001292  87.5103 272.6037 15.08840053 33970","CLASSIFICATION_TYPE":"U","OBJECT_NAME":"STARLINK-5149","TLE_LINE1":"1 53981U 22125T   23133.77764696  .00001808  00000-0  13163-3 0  9996","TIME_SYSTEM":"UTC","NORAD_CAT_ID":"53981","MEAN_MOTION_DDOT":"0.0000000000000","SITE":"AFWTR","RA_OF_ASC_NODE":"151.8393","REF_FRAME":"TEME","MEAN_ANOMALY":"272.6037","ECCENTRICITY":"0.00012920","RCS_SIZE":"LARGE","FILE":"3907148","PERIOD":"95.438","CENTER_NAME":"EARTH","APOAPSIS":"540.639","GP_ID":"231782294","INCLINATION":"53.2155","MEAN_ELEMENT_THEORY":"SGP4","ARG_OF_PERICENTER":"87.5103","EPHEMERIS_TYPE":"0","PERIAPSIS":"538.851"},{"APOAPSIS":"540.595","INCLINATION":"53.2146","GP_ID":"231752272","MEAN_ELEMENT_THEORY":"SGP4","ARG_OF_PERICENTER":"79.4876","PERIAPSIS":"538.897","EPHEMERIS_TYPE":"0","TLE_LINE1":"1 53982U 22125U   23133.80619570  .00000968  00000-0  78895-4 0  9991","OBJECT_NAME":"STARLINK-5120","NORAD_CAT_ID":"53982","TIME_SYSTEM":"UTC","MEAN_ANOMALY":"280.6254","REF_FRAME":"TEME","RA_OF_ASC_NODE":"161.9680","SITE":"AFWTR","MEAN_MOTION_DDOT":"0.0000000000000","PERIOD":"95.438","CENTER_NAME":"EARTH","ECCENTRICITY":"0.00012270","FILE":"3906962","RCS_SIZE":"LARGE","MEAN_MOTION_DOT":"0.00000968","SEMIMAJOR_AXIS":"6917.881","LAUNCH_DATE":"2022-10-05","REV_AT_EPOCH":"3390","ELEMENT_SET_NO":"999","TLE_LINE2":"2 53982  53.2146 161.9680 0001227  79.4876 280.6254 15.08839831 33902","CLASSIFICATION_TYPE":"U","DECAY_DATE":null,"MEAN_MOTION":"15.08839831","EPOCH":"2023-05-13T19:20:55.308480","OBJECT_ID":"2022-125U","OBJECT_TYPE":"PAYLOAD","BSTAR":"0.00007889500000","COUNTRY_CODE":"US"},{"COUNTRY_CODE":"US","OBJECT_TYPE":"PAYLOAD","BSTAR":"0.00010139000000","OBJECT_ID":"2022-125V","EPOCH":"2023-05-13T18:50:24.817344","MEAN_MOTION":"15.08842345","DECAY_DATE":null,"CLASSIFICATION_TYPE":"U","TLE_LINE2":"2 53983  53.2155 151.8663 0001197  84.9530 275.1598 15.08842345 33977","ELEMENT_SET_NO":"999","LAUNCH_DATE":"2022-10-05","REV_AT_EPOCH":"3397","SEMIMAJOR_AXIS":"6917.873","MEAN_MOTION_DOT":"0.00001326","RCS_SIZE":"LARGE","FILE":"3907148","ECCENTRICITY":"0.00011970","CENTER_NAME":"EARTH","PERIOD":"95.437","MEAN_MOTION_DDOT":"0.0000000000000","SITE":"AFWTR","RA_OF_ASC_NODE":"151.8663","REF_FRAME":"TEME","MEAN_ANOMALY":"275.1598","TIME_SYSTEM":"UTC","NORAD_CAT_ID":"53983","OBJECT_NAME":"STARLINK-5103","TLE_LINE1":"1 53983U 22125V   23133.78500946  .00001326  00000-0  10139-3 0  9990","EPHEMERIS_TYPE":"0","PERIAPSIS":"538.910","ARG_OF_PERICENTER":"84.9530","MEAN_ELEMENT_THEORY":"SGP4","GP_ID":"231781792","INCLINATION":"53.2155","APOAPSIS":"540.566"}];
